{
  "type": "FeatureCollection",
  "_generated": "tools/build_us_geojson.py from overlays/us.yaml — do not edit",
  "_register": "interpreted — authored approximations of governance footprints, not surveyed boundaries or physical routing",
  "features": [
    {
      "type": "Feature",
      "geometry": {
        "type": "Polygon",
        "coordinates": [
          [
            [
              -71.32,
              41.7
            ],
            [
              -71.25,
              41.7
            ],
            [
              -71.2,
              41.6
            ],
            [
              -71.22,
              41.5
            ],
            [
              -71.3,
              41.47
            ],
            [
              -71.37,
              41.52
            ],
            [
              -71.38,
              41.62
            ],
            [
              -71.32,
              41.7
            ]
          ]
        ]
      },
      "properties": {
        "case_id": "aquidneck-island-gas-outage-2019",
        "role": "affected",
        "label": "Aquidneck Island, Rhode Island",
        "register": "interpreted"
      }
    },
    {
      "type": "Feature",
      "geometry": {
        "type": "Polygon",
        "coordinates": [
          [
            [
              -74.5,
              40.8
            ],
            [
              -73.5,
              41.0
            ],
            [
              -72.5,
              41.3
            ],
            [
              -71.5,
              41.5
            ],
            [
              -70.5,
              41.8
            ],
            [
              -70.0,
              41.8
            ],
            [
              -70.5,
              42.2
            ],
            [
              -71.5,
              42.0
            ],
            [
              -72.5,
              41.7
            ],
            [
              -73.5,
              41.4
            ],
            [
              -74.5,
              41.2
            ],
            [
              -74.5,
              40.8
            ]
          ]
        ]
      },
      "properties": {
        "case_id": "aquidneck-island-gas-outage-2019",
        "role": "control",
        "label": "Algonquin Gas Transmission Corridor (NJ to SE MA)",
        "register": "interpreted"
      }
    },
    {
      "type": "Feature",
      "geometry": {
        "type": "Polygon",
        "coordinates": [
          [
            [
              -117.3,
              34.0
            ],
            [
              -115.0,
              35.5
            ],
            [
              -114.5,
              36.0
            ],
            [
              -114.0,
              36.8
            ],
            [
              -114.0,
              35.0
            ],
            [
              -113.0,
              33.5
            ],
            [
              -112.0,
              33.0
            ],
            [
              -111.5,
              32.5
            ],
            [
              -111.5,
              31.3
            ],
            [
              -114.8,
              32.5
            ],
            [
              -116.0,
              32.5
            ],
            [
              -117.5,
              32.5
            ],
            [
              -118.5,
              33.0
            ],
            [
              -118.5,
              34.0
            ],
            [
              -117.3,
              34.0
            ]
          ]
        ]
      },
      "properties": {
        "case_id": "colorado-river-post2026-allocation",
        "role": "affected",
        "label": "Lower Basin Dependent Areas (S. NV, C/S AZ, S. CA)",
        "register": "interpreted"
      }
    },
    {
      "type": "Feature",
      "geometry": {
        "type": "Polygon",
        "coordinates": [
          [
            [
              -109.0,
              37.0
            ],
            [
              -102.0,
              37.0
            ],
            [
              -102.0,
              41.0
            ],
            [
              -111.0,
              45.0
            ],
            [
              -114.0,
              42.0
            ],
            [
              -114.0,
              37.0
            ],
            [
              -112.0,
              37.0
            ],
            [
              -111.0,
              37.0
            ],
            [
              -109.0,
              37.0
            ]
          ]
        ]
      },
      "properties": {
        "case_id": "colorado-river-post2026-allocation",
        "role": "control",
        "label": "Upper Basin States (CO, WY, UT, NM)",
        "register": "interpreted"
      }
    },
    {
      "type": "Feature",
      "geometry": {
        "type": "Polygon",
        "coordinates": [
          [
            [
              -75.8,
              39.7
            ],
            [
              -75.5,
              39.8
            ],
            [
              -75.1,
              39.4
            ],
            [
              -74.9,
              38.8
            ],
            [
              -75.0,
              38.3
            ],
            [
              -75.3,
              37.9
            ],
            [
              -75.7,
              37.9
            ],
            [
              -76.0,
              38.3
            ],
            [
              -76.0,
              38.8
            ],
            [
              -75.9,
              39.3
            ],
            [
              -75.8,
              39.7
            ]
          ]
        ]
      },
      "properties": {
        "case_id": "delmarva-dpl-south-pjm-capacity-2023",
        "role": "affected",
        "label": "Delmarva Peninsula (Delaware + Eastern Shore MD)",
        "register": "interpreted"
      }
    },
    {
      "type": "Feature",
      "geometry": {
        "type": "Polygon",
        "coordinates": [
          [
            [
              -75.5,
              40.2
            ],
            [
              -75.3,
              40.2
            ],
            [
              -75.3,
              40.0
            ],
            [
              -75.5,
              40.0
            ],
            [
              -75.5,
              40.2
            ]
          ]
        ]
      },
      "properties": {
        "case_id": "delmarva-dpl-south-pjm-capacity-2023",
        "role": "control",
        "label": "PJM Headquarters (Audubon, PA)",
        "register": "interpreted"
      }
    },
    {
      "type": "Feature",
      "geometry": {
        "type": "Polygon",
        "coordinates": [
          [
            [
              -96.0,
              48.5
            ],
            [
              -90.0,
              48.0
            ],
            [
              -84.5,
              46.0
            ],
            [
              -82.5,
              42.0
            ],
            [
              -84.5,
              38.5
            ],
            [
              -83.0,
              37.0
            ],
            [
              -88.0,
              36.5
            ],
            [
              -89.5,
              34.5
            ],
            [
              -90.5,
              32.0
            ],
            [
              -91.5,
              30.0
            ],
            [
              -93.5,
              30.0
            ],
            [
              -92.5,
              32.5
            ],
            [
              -92.0,
              35.5
            ],
            [
              -94.0,
              38.5
            ],
            [
              -95.5,
              42.5
            ],
            [
              -96.0,
              48.5
            ]
          ]
        ]
      },
      "properties": {
        "case_id": "doe-202c-emergency-orders-2025",
        "role": "affected",
        "label": "11 MISO states absorbing socialized compliance costs",
        "register": "interpreted"
      }
    },
    {
      "type": "Feature",
      "geometry": {
        "type": "Polygon",
        "coordinates": [
          [
            [
              -77.1,
              38.92
            ],
            [
              -77.0,
              38.92
            ],
            [
              -76.97,
              38.88
            ],
            [
              -77.0,
              38.84
            ],
            [
              -77.07,
              38.84
            ],
            [
              -77.1,
              38.87
            ],
            [
              -77.1,
              38.92
            ]
          ]
        ]
      },
      "properties": {
        "case_id": "doe-202c-emergency-orders-2025",
        "role": "control",
        "label": "U.S. Department of Energy (Washington, D.C.)",
        "register": "interpreted"
      }
    },
    {
      "type": "Feature",
      "geometry": {
        "type": "Polygon",
        "coordinates": [
          [
            [
              -90.4,
              30.1
            ],
            [
              -90.0,
              30.2
            ],
            [
              -89.7,
              30.1
            ],
            [
              -89.6,
              29.9
            ],
            [
              -89.8,
              29.7
            ],
            [
              -90.1,
              29.8
            ],
            [
              -90.4,
              29.9
            ],
            [
              -90.5,
              30.0
            ],
            [
              -90.4,
              30.1
            ]
          ]
        ]
      },
      "properties": {
        "case_id": "entergy-miso-south-nola-blackout-2025",
        "role": "affected",
        "label": "Greater New Orleans Metro Area",
        "register": "interpreted"
      }
    },
    {
      "type": "Feature",
      "geometry": {
        "type": "Polygon",
        "coordinates": [
          [
            [
              -94.6,
              33.6
            ],
            [
              -90.3,
              35.0
            ],
            [
              -88.2,
              35.0
            ],
            [
              -88.0,
              32.0
            ],
            [
              -89.5,
              30.2
            ],
            [
              -89.0,
              29.0
            ],
            [
              -91.0,
              29.0
            ],
            [
              -93.8,
              29.5
            ],
            [
              -94.8,
              30.5
            ],
            [
              -94.0,
              31.5
            ],
            [
              -94.0,
              33.0
            ],
            [
              -94.6,
              33.6
            ]
          ]
        ]
      },
      "properties": {
        "case_id": "entergy-miso-south-nola-blackout-2025",
        "role": "control",
        "label": "Entergy 4-State Territory (AR, MS, LA, TX Gulf)",
        "register": "interpreted"
      }
    },
    {
      "type": "Feature",
      "geometry": {
        "type": "Polygon",
        "coordinates": [
          [
            [
              -73.5,
              42.1
            ],
            [
              -71.8,
              42.0
            ],
            [
              -70.5,
              42.0
            ],
            [
              -69.9,
              41.7
            ],
            [
              -71.2,
              41.5
            ],
            [
              -71.9,
              41.3
            ],
            [
              -72.7,
              41.1
            ],
            [
              -73.7,
              41.1
            ],
            [
              -73.5,
              41.6
            ],
            [
              -73.3,
              42.1
            ],
            [
              -72.5,
              43.5
            ],
            [
              -71.5,
              45.0
            ],
            [
              -70.0,
              47.5
            ],
            [
              -67.0,
              47.5
            ],
            [
              -67.0,
              45.0
            ],
            [
              -69.0,
              43.5
            ],
            [
              -70.5,
              43.0
            ],
            [
              -71.0,
              42.5
            ],
            [
              -73.5,
              42.1
            ]
          ]
        ]
      },
      "properties": {
        "case_id": "iso-ne-winter-gas-pipeline-constraint",
        "role": "affected",
        "label": "New England 6 States",
        "register": "interpreted"
      }
    },
    {
      "type": "Feature",
      "geometry": {
        "type": "Polygon",
        "coordinates": [
          [
            [
              -80.5,
              39.5
            ],
            [
              -79.0,
              39.8
            ],
            [
              -77.5,
              40.5
            ],
            [
              -76.0,
              41.5
            ],
            [
              -74.5,
              41.8
            ],
            [
              -73.0,
              42.5
            ],
            [
              -71.5,
              42.8
            ],
            [
              -70.5,
              42.5
            ],
            [
              -71.5,
              42.0
            ],
            [
              -73.5,
              41.5
            ],
            [
              -75.5,
              41.0
            ],
            [
              -77.0,
              40.0
            ],
            [
              -79.5,
              39.0
            ],
            [
              -80.5,
              39.5
            ]
          ]
        ]
      },
      "properties": {
        "case_id": "iso-ne-winter-gas-pipeline-constraint",
        "role": "control",
        "label": "Interstate Pipeline Corridor (PA/WV to New England)",
        "register": "interpreted"
      }
    },
    {
      "type": "Feature",
      "geometry": {
        "type": "Polygon",
        "coordinates": [
          [
            [
              -90.4,
              32.42
            ],
            [
              -90.1,
              32.38
            ],
            [
              -89.95,
              32.2
            ],
            [
              -90.05,
              32.05
            ],
            [
              -90.3,
              32.0
            ],
            [
              -90.55,
              32.1
            ],
            [
              -90.6,
              32.28
            ],
            [
              -90.5,
              32.4
            ],
            [
              -90.4,
              32.42
            ]
          ]
        ]
      },
      "properties": {
        "case_id": "jackson-ms-water-crisis-2022",
        "role": "affected",
        "label": "Jackson, Mississippi",
        "register": "interpreted"
      }
    },
    {
      "type": "Feature",
      "geometry": {
        "type": "Polygon",
        "coordinates": [
          [
            [
              -91.65,
              34.99
            ],
            [
              -88.2,
              34.99
            ],
            [
              -88.1,
              34.5
            ],
            [
              -88.47,
              33.0
            ],
            [
              -88.4,
              31.9
            ],
            [
              -89.2,
              30.35
            ],
            [
              -89.6,
              30.18
            ],
            [
              -89.75,
              30.25
            ],
            [
              -90.0,
              30.2
            ],
            [
              -90.25,
              30.5
            ],
            [
              -89.6,
              31.0
            ],
            [
              -90.05,
              31.5
            ],
            [
              -91.1,
              31.0
            ],
            [
              -91.6,
              32.5
            ],
            [
              -91.5,
              33.8
            ],
            [
              -91.2,
              34.5
            ],
            [
              -91.65,
              34.99
            ]
          ]
        ]
      },
      "properties": {
        "case_id": "jackson-ms-water-crisis-2022",
        "role": "control",
        "label": "State of Mississippi",
        "register": "interpreted"
      }
    },
    {
      "type": "Feature",
      "geometry": {
        "type": "Polygon",
        "coordinates": [
          [
            [
              -124.2,
              42.0
            ],
            [
              -122.5,
              42.0
            ],
            [
              -121.3,
              42.0
            ],
            [
              -120.0,
              42.0
            ],
            [
              -120.0,
              41.2
            ],
            [
              -121.0,
              40.8
            ],
            [
              -122.0,
              40.5
            ],
            [
              -122.8,
              40.4
            ],
            [
              -123.5,
              40.6
            ],
            [
              -124.1,
              41.0
            ],
            [
              -124.2,
              41.5
            ],
            [
              -124.2,
              42.0
            ]
          ]
        ]
      },
      "properties": {
        "case_id": "pacificorp-california-balancing-2022",
        "role": "affected",
        "label": "Far Northern California (Del Norte, Modoc, Shasta, Siskiyou)",
        "register": "interpreted"
      }
    },
    {
      "type": "Feature",
      "geometry": {
        "type": "Polygon",
        "coordinates": [
          [
            [
              -124.5,
              49.0
            ],
            [
              -116.5,
              49.0
            ],
            [
              -111.0,
              45.0
            ],
            [
              -109.0,
              45.0
            ],
            [
              -104.0,
              41.0
            ],
            [
              -109.0,
              37.0
            ],
            [
              -114.0,
              37.0
            ],
            [
              -117.0,
              37.0
            ],
            [
              -120.0,
              39.0
            ],
            [
              -120.5,
              42.0
            ],
            [
              -122.0,
              42.0
            ],
            [
              -124.5,
              46.5
            ],
            [
              -124.5,
              49.0
            ]
          ]
        ]
      },
      "properties": {
        "case_id": "pacificorp-california-balancing-2022",
        "role": "control",
        "label": "PacifiCorp 6-State Service Territory",
        "register": "interpreted"
      }
    },
    {
      "type": "Feature",
      "geometry": {
        "type": "Polygon",
        "coordinates": [
          [
            [
              -87.8,
              42.5
            ],
            [
              -84.8,
              42.0
            ],
            [
              -82.5,
              41.7
            ],
            [
              -80.5,
              42.3
            ],
            [
              -79.8,
              42.5
            ],
            [
              -75.3,
              42.0
            ],
            [
              -74.7,
              41.2
            ],
            [
              -74.0,
              40.5
            ],
            [
              -74.2,
              39.5
            ],
            [
              -75.5,
              38.5
            ],
            [
              -76.3,
              37.0
            ],
            [
              -76.8,
              36.55
            ],
            [
              -78.5,
              36.55
            ],
            [
              -81.7,
              36.6
            ],
            [
              -84.3,
              36.6
            ],
            [
              -84.8,
              38.8
            ],
            [
              -86.0,
              39.9
            ],
            [
              -87.8,
              40.5
            ],
            [
              -88.1,
              41.5
            ],
            [
              -87.8,
              42.5
            ]
          ]
        ]
      },
      "properties": {
        "case_id": "pjm-data-center-cost-spillover-2025",
        "role": "affected",
        "label": "PJM footprint (13 states + D.C.)",
        "register": "interpreted"
      }
    },
    {
      "type": "Feature",
      "geometry": {
        "type": "Polygon",
        "coordinates": [
          [
            [
              -77.95,
              39.25
            ],
            [
              -77.55,
              39.2
            ],
            [
              -77.3,
              39.0
            ],
            [
              -77.3,
              38.82
            ],
            [
              -77.55,
              38.75
            ],
            [
              -77.85,
              38.82
            ],
            [
              -78.0,
              39.0
            ],
            [
              -77.95,
              39.25
            ]
          ]
        ]
      },
      "properties": {
        "case_id": "pjm-data-center-cost-spillover-2025",
        "role": "control",
        "label": "Loudoun County, Virginia (data center corridor)",
        "register": "interpreted"
      }
    },
    {
      "type": "Feature",
      "geometry": {
        "type": "Polygon",
        "coordinates": [
          [
            [
              -77.6,
              39.3
            ],
            [
              -77.1,
              39.3
            ],
            [
              -76.9,
              39.1
            ],
            [
              -77.0,
              38.8
            ],
            [
              -77.5,
              38.8
            ],
            [
              -77.8,
              39.0
            ],
            [
              -77.8,
              39.2
            ],
            [
              -77.6,
              39.3
            ]
          ]
        ]
      },
      "properties": {
        "case_id": "potomac-interceptor-collapse-2026",
        "role": "affected",
        "label": "Northern Virginia / Montgomery County MD",
        "register": "interpreted"
      }
    },
    {
      "type": "Feature",
      "geometry": {
        "type": "Polygon",
        "coordinates": [
          [
            [
              -77.12,
              38.99
            ],
            [
              -76.91,
              38.89
            ],
            [
              -77.04,
              38.79
            ],
            [
              -77.12,
              38.79
            ],
            [
              -77.12,
              38.89
            ],
            [
              -77.04,
              38.99
            ],
            [
              -77.12,
              38.99
            ]
          ]
        ]
      },
      "properties": {
        "case_id": "potomac-interceptor-collapse-2026",
        "role": "control",
        "label": "Washington, D.C. (DC Water)",
        "register": "interpreted"
      }
    },
    {
      "type": "Feature",
      "geometry": {
        "type": "Polygon",
        "coordinates": [
          [
            [
              -120.15,
              39.23
            ],
            [
              -119.89,
              39.16
            ],
            [
              -119.77,
              38.93
            ],
            [
              -119.89,
              38.7
            ],
            [
              -120.1,
              38.65
            ],
            [
              -120.28,
              38.78
            ],
            [
              -120.35,
              39.0
            ],
            [
              -120.28,
              39.18
            ],
            [
              -120.15,
              39.23
            ]
          ]
        ]
      },
      "properties": {
        "case_id": "tahoe-nvenergy-supply-2026",
        "role": "affected",
        "label": "Lake Tahoe basin, California",
        "register": "interpreted"
      }
    },
    {
      "type": "Feature",
      "geometry": {
        "type": "Polygon",
        "coordinates": [
          [
            [
              -120.0,
              42.0
            ],
            [
              -114.05,
              42.0
            ],
            [
              -114.05,
              37.0
            ],
            [
              -114.75,
              35.1
            ],
            [
              -117.6,
              35.0
            ],
            [
              -119.5,
              35.8
            ],
            [
              -120.0,
              37.5
            ],
            [
              -119.8,
              39.5
            ],
            [
              -119.3,
              41.0
            ],
            [
              -120.0,
              42.0
            ]
          ]
        ]
      },
      "properties": {
        "case_id": "tahoe-nvenergy-supply-2026",
        "role": "control",
        "label": "NV Energy service territory (Nevada)",
        "register": "interpreted"
      }
    },
    {
      "type": "Feature",
      "geometry": {
        "type": "Polygon",
        "coordinates": [
          [
            [
              -100.0,
              36.5
            ],
            [
              -97.0,
              36.5
            ],
            [
              -94.0,
              33.5
            ],
            [
              -93.5,
              31.0
            ],
            [
              -94.0,
              30.0
            ],
            [
              -95.5,
              28.5
            ],
            [
              -97.0,
              26.5
            ],
            [
              -98.5,
              26.0
            ],
            [
              -99.5,
              27.5
            ],
            [
              -100.5,
              29.0
            ],
            [
              -101.0,
              30.0
            ],
            [
              -102.5,
              30.0
            ],
            [
              -103.0,
              31.5
            ],
            [
              -104.0,
              31.8
            ],
            [
              -104.0,
              33.0
            ],
            [
              -103.0,
              34.0
            ],
            [
              -101.0,
              36.5
            ],
            [
              -100.0,
              36.5
            ]
          ]
        ]
      },
      "properties": {
        "case_id": "texas-uri-gas-electric-2021",
        "role": "affected",
        "label": "ERCOT Territory (Most of Texas)",
        "register": "interpreted"
      }
    },
    {
      "type": "Feature",
      "geometry": {
        "type": "Polygon",
        "coordinates": [
          [
            [
              -104.5,
              32.5
            ],
            [
              -103.0,
              32.5
            ],
            [
              -101.5,
              32.0
            ],
            [
              -100.5,
              31.0
            ],
            [
              -100.5,
              30.0
            ],
            [
              -102.0,
              29.5
            ],
            [
              -103.5,
              29.8
            ],
            [
              -104.5,
              30.5
            ],
            [
              -105.0,
              31.5
            ],
            [
              -104.5,
              32.5
            ]
          ]
        ]
      },
      "properties": {
        "case_id": "texas-uri-gas-electric-2021",
        "role": "control",
        "label": "Permian Basin Gas Production Region",
        "register": "interpreted"
      }
    },
    {
      "type": "Feature",
      "geometry": {
        "type": "Polygon",
        "coordinates": [
          [
            [
              -83.8,
              41.75
            ],
            [
              -83.5,
              41.75
            ],
            [
              -83.4,
              41.6
            ],
            [
              -83.5,
              41.5
            ],
            [
              -83.7,
              41.5
            ],
            [
              -83.9,
              41.6
            ],
            [
              -83.9,
              41.7
            ],
            [
              -83.8,
              41.75
            ]
          ]
        ]
      },
      "properties": {
        "case_id": "toledo-lake-erie-algal-bloom-2014",
        "role": "affected",
        "label": "Toledo / Lucas County, Ohio",
        "register": "interpreted"
      }
    },
    {
      "type": "Feature",
      "geometry": {
        "type": "Polygon",
        "coordinates": [
          [
            [
              -85.5,
              41.8
            ],
            [
              -84.5,
              42.1
            ],
            [
              -83.5,
              41.9
            ],
            [
              -83.0,
              41.5
            ],
            [
              -83.5,
              41.0
            ],
            [
              -84.0,
              40.8
            ],
            [
              -85.0,
              40.7
            ],
            [
              -85.5,
              40.8
            ],
            [
              -86.0,
              41.2
            ],
            [
              -85.8,
              41.5
            ],
            [
              -85.5,
              41.8
            ]
          ]
        ]
      },
      "properties": {
        "case_id": "toledo-lake-erie-algal-bloom-2014",
        "role": "control",
        "label": "Maumee River Watershed (NW Ohio, NE Indiana, SE Michigan)",
        "register": "interpreted"
      }
    },
    {
      "type": "Feature",
      "geometry": {
        "type": "Polygon",
        "coordinates": [
          [
            [
              -90.3,
              35.0
            ],
            [
              -88.1,
              35.0
            ],
            [
              -84.3,
              35.0
            ],
            [
              -82.5,
              35.5
            ],
            [
              -81.7,
              36.5
            ],
            [
              -83.0,
              37.0
            ],
            [
              -84.0,
              37.5
            ],
            [
              -85.5,
              38.0
            ],
            [
              -87.5,
              37.5
            ],
            [
              -88.5,
              37.2
            ],
            [
              -89.5,
              37.0
            ],
            [
              -90.5,
              36.5
            ],
            [
              -90.3,
              35.0
            ]
          ]
        ]
      },
      "properties": {
        "case_id": "tva-elliott-gas-generation-2022",
        "role": "affected",
        "label": "TVA 7-State Service Territory",
        "register": "interpreted"
      }
    },
    {
      "type": "Feature",
      "geometry": {
        "type": "Polygon",
        "coordinates": [
          [
            [
              -84.8,
              41.7
            ],
            [
              -80.5,
              42.3
            ],
            [
              -77.0,
              42.0
            ],
            [
              -75.5,
              40.5
            ],
            [
              -77.0,
              39.5
            ],
            [
              -79.5,
              39.0
            ],
            [
              -81.5,
              38.5
            ],
            [
              -82.5,
              38.5
            ],
            [
              -84.5,
              39.0
            ],
            [
              -84.8,
              40.5
            ],
            [
              -84.8,
              41.7
            ]
          ]
        ]
      },
      "properties": {
        "case_id": "tva-elliott-gas-generation-2022",
        "role": "control",
        "label": "Marcellus/Utica Gas Production Region (PA, WV, OH)",
        "register": "interpreted"
      }
    },
    {
      "type": "Feature",
      "geometry": {
        "type": "Polygon",
        "coordinates": [
          [
            [
              -90.4,
              46.6
            ],
            [
              -88.1,
              46.8
            ],
            [
              -85.5,
              46.5
            ],
            [
              -84.2,
              46.5
            ],
            [
              -83.5,
              46.0
            ],
            [
              -84.5,
              45.8
            ],
            [
              -85.5,
              45.7
            ],
            [
              -86.5,
              45.9
            ],
            [
              -87.5,
              45.8
            ],
            [
              -88.5,
              45.9
            ],
            [
              -89.5,
              46.1
            ],
            [
              -90.4,
              46.4
            ],
            [
              -90.4,
              46.6
            ]
          ]
        ]
      },
      "properties": {
        "case_id": "upper-peninsula-michigan-miso-2024",
        "role": "affected",
        "label": "Michigan Upper Peninsula",
        "register": "interpreted"
      }
    },
    {
      "type": "Feature",
      "geometry": {
        "type": "Polygon",
        "coordinates": [
          [
            [
              -92.9,
              46.9
            ],
            [
              -90.4,
              46.9
            ],
            [
              -87.8,
              45.5
            ],
            [
              -87.1,
              44.7
            ],
            [
              -87.0,
              43.0
            ],
            [
              -87.8,
              42.5
            ],
            [
              -88.8,
              42.5
            ],
            [
              -90.6,
              42.5
            ],
            [
              -91.5,
              43.5
            ],
            [
              -92.3,
              44.5
            ],
            [
              -92.9,
              45.5
            ],
            [
              -92.9,
              46.9
            ]
          ]
        ]
      },
      "properties": {
        "case_id": "upper-peninsula-michigan-miso-2024",
        "role": "control",
        "label": "American Transmission Company Territory (Wisconsin)",
        "register": "interpreted"
      }
    },
    {
      "type": "Feature",
      "geometry": {
        "type": "Polygon",
        "coordinates": [
          [
            [
              -77.2,
              38.95
            ],
            [
              -77.0,
              39.0
            ],
            [
              -76.9,
              38.9
            ],
            [
              -76.9,
              38.8
            ],
            [
              -77.05,
              38.78
            ],
            [
              -77.2,
              38.8
            ],
            [
              -77.3,
              38.85
            ],
            [
              -77.2,
              38.95
            ]
          ]
        ]
      },
      "properties": {
        "case_id": "washington-aqueduct-single-source-2026",
        "role": "affected",
        "label": "DC + Arlington + Parts of Fairfax",
        "register": "interpreted"
      }
    },
    {
      "type": "Feature",
      "geometry": {
        "type": "Polygon",
        "coordinates": [
          [
            [
              -79.5,
              39.7
            ],
            [
              -78.5,
              39.8
            ],
            [
              -77.5,
              39.5
            ],
            [
              -77.2,
              39.2
            ],
            [
              -77.0,
              39.0
            ],
            [
              -76.8,
              38.8
            ],
            [
              -77.2,
              38.7
            ],
            [
              -77.8,
              39.0
            ],
            [
              -78.5,
              39.2
            ],
            [
              -79.0,
              39.4
            ],
            [
              -79.5,
              39.5
            ],
            [
              -79.5,
              39.7
            ]
          ]
        ]
      },
      "properties": {
        "case_id": "washington-aqueduct-single-source-2026",
        "role": "control",
        "label": "Potomac River Watershed Upstream (WV through MD)",
        "register": "interpreted"
      }
    }
  ]
}
