{"type":"FeatureCollection","_role":"cartographic substrate only \u2014 NOT evidence, NOT part of the claim corpus","_source":"Natural Earth 1:50m Admin 1 States/Provinces","_version":"nvkelso/natural-earth-vector v5.1.2","_license":"Public domain (Natural Earth terms of use)","_retrieved":"2026-08-14","_transform":"subset to 6 US states by name; parts with bbox diagonal <0.1 deg dropped (3 of 38); coords rounded to 3 dp","features":[{"type":"Feature","properties":{"postal":"CA","name":"California"},"geometry":{"type":"MultiPolygon","coordinates":[[[[-114.611,34.991],[-114.611,34.907],[-114.557,34.795],[-114.398,34.59],[-114.379,34.541],[-114.377,34.54],[-114.371,34.488],[-114.308,34.433],[-114.159,34.355],[-114.125,34.317],[-114.125,34.314],[-114.126,34.287],[-114.164,34.253],[-114.329,34.142],[-114.418,34.051],[-114.509,33.904],[-114.495,33.785],[-114.499,33.686],[-114.522,33.608],[-114.556,33.536],[-114.603,33.47],[-114.651,33.431],[-114.702,33.418],[-114.719,33.331],[-114.704,33.17],[-114.648,33.072],[-114.551,33.037],[-114.491,32.984],[-114.469,32.912],[-114.478,32.842],[-114.516,32.773],[-114.582,32.735],[-114.721,32.724],[-114.721,32.724],[-114.725,32.715],[-114.839,32.705],[-115.125,32.683],[-115.411,32.662],[-115.698,32.64],[-115.984,32.619],[-116.27,32.598],[-116.556,32.576],[-116.842,32.555],[-117.128,32.533],[-117.13,32.54],[-117.137,32.649],[-117.184,32.688],[-117.243,32.664],[-117.271,32.806],[-117.256,32.873],[-117.263,32.939],[-117.319,33.1],[-117.467,33.295],[-117.789,33.538],[-117.952,33.62],[-118.081,33.722],[-118.162,33.751],[-118.264,33.759],[-118.294,33.712],[-118.41,33.744],[-118.393,33.858],[-118.506,34.017],[-118.599,34.035],[-118.832,34.024],[-119.144,34.112],[-119.236,34.164],[-119.268,34.257],[-119.414,34.339],[-119.606,34.418],[-119.713,34.4],[-119.853,34.412],[-120.053,34.469],[-120.17,34.476],[-120.396,34.46],[-120.481,34.472],[-120.56,34.544],[-120.645,34.58],[-120.627,34.669],[-120.638,34.749],[-120.625,34.812],[-120.663,34.949],[-120.634,35.076],[-120.659,35.122],[-120.707,35.158],[-120.857,35.21],[-120.885,35.275],[-120.86,35.365],[-120.9,35.425],[-121.023,35.481],[-121.138,35.607],[-121.284,35.676],[-121.344,35.792],[-121.434,35.864],[-121.465,35.927],[-121.664,36.154],[-121.877,36.331],[-121.91,36.433],[-121.919,36.572],[-121.835,36.657],[-121.79,36.732],[-121.795,36.801],[-121.807,36.851],[-121.881,36.939],[-122.164,36.991],[-122.395,37.208],[-122.408,37.373],[-122.499,37.543],[-122.5,37.653],[-122.514,37.772],[-122.446,37.798],[-122.384,37.789],[-122.39,37.741],[-122.37,37.656],[-122.298,37.592],[-122.229,37.564],[-122.166,37.502],[-122.119,37.483],[-122.071,37.478],[-122.097,37.518],[-122.124,37.544],[-122.158,37.626],[-122.222,37.732],[-122.296,37.79],[-122.333,37.897],[-122.365,37.921],[-122.385,37.961],[-122.314,38.007],[-122.217,38.041],[-122.087,38.05],[-121.717,38.034],[-121.638,38.061],[-121.573,38.052],[-121.525,38.056],[-121.626,38.084],[-121.682,38.075],[-121.749,38.08],[-121.881,38.075],[-121.934,38.087],[-121.993,38.12],[-122.032,38.124],[-122.154,38.066],[-122.208,38.073],[-122.337,38.136],[-122.393,38.145],[-122.484,38.109],[-122.495,37.954],[-122.467,37.838],[-122.521,37.826],[-122.584,37.874],[-122.681,37.902],[-122.76,37.946],[-122.873,38.026],[-122.932,38.055],[-122.999,37.989],[-123.001,38.019],[-122.968,38.097],[-122.978,38.227],[-122.877,38.123],[-122.908,38.197],[-122.987,38.277],[-123.046,38.305],[-123.121,38.449],[-123.29,38.536],[-123.425,38.676],[-123.701,38.907],[-123.72,39.111],[-123.82,39.368],[-123.778,39.515],[-123.784,39.619],[-123.833,39.776],[-123.884,39.861],[-124.109,40.095],[-124.324,40.252],[-124.357,40.371],[-124.372,40.491],[-124.325,40.598],[-124.284,40.711],[-124.254,40.74],[-124.242,40.728],[-124.251,40.704],[-124.22,40.696],[-124.208,40.746],[-124.19,40.772],[-124.222,40.775],[-124.219,40.791],[-124.2,40.822],[-124.133,40.97],[-124.14,41.156],[-124.069,41.384],[-124.072,41.46],[-124.118,41.622],[-124.163,41.719],[-124.245,41.788],[-124.209,41.889],[-124.212,41.985],[-124.228,42.001],[-123.956,42.001],[-123.692,42.001],[-123.428,42.001],[-123.165,42.001],[-122.901,42.001],[-122.637,42.001],[-122.374,42.001],[-122.11,42.001],[-121.846,42.001],[-121.583,42.001],[-121.319,42.001],[-121.055,42.001],[-120.792,42.001],[-120.528,42.001],[-120.264,42.001],[-120.001,42.001],[-120.001,41.813],[-120.001,41.626],[-120.001,41.438],[-120.001,41.251],[-120.001,41.063],[-120.001,40.875],[-120.001,40.688],[-120.0,40.5],[-120.0,40.313],[-120.0,40.125],[-120.0,39.938],[-120.0,39.75],[-120.0,39.563],[-120.0,39.375],[-120.0,39.188],[-120.0,39.0],[-119.766,38.837],[-119.532,38.673],[-119.297,38.51],[-119.063,38.346],[-118.829,38.183],[-118.595,38.019],[-118.36,37.856],[-118.126,37.692],[-117.943,37.555],[-117.76,37.417],[-117.576,37.279],[-117.393,37.141],[-117.21,37.003],[-117.026,36.866],[-116.843,36.728],[-116.66,36.59],[-116.406,36.392],[-116.152,36.194],[-115.898,35.995],[-115.644,35.797],[-115.39,35.599],[-115.136,35.401],[-114.882,35.203],[-114.611,34.991]]],[[[-119.882,34.08],[-119.679,34.028],[-119.569,34.053],[-119.549,34.028],[-119.562,34.007],[-119.81,33.968],[-119.886,33.995],[-119.892,34.032],[-119.918,34.068],[-119.882,34.08]]],[[[-120.307,34.025],[-120.36,34.022],[-120.442,34.033],[-120.413,34.056],[-120.368,34.073],[-120.353,34.061],[-120.307,34.025]]],[[[-120.044,33.919],[-120.114,33.905],[-120.167,33.918],[-120.252,34.014],[-120.072,34.027],[-119.994,33.985],[-119.984,33.973],[-120.044,33.919]]],[[[-118.348,33.386],[-118.297,33.312],[-118.37,33.321],[-118.446,33.317],[-118.469,33.357],[-118.492,33.413],[-118.507,33.427],[-118.559,33.432],[-118.563,33.437],[-118.569,33.464],[-118.555,33.477],[-118.392,33.415],[-118.348,33.386]]],[[[-119.438,33.217],[-119.482,33.215],[-119.544,33.225],[-119.575,33.278],[-119.525,33.282],[-119.479,33.275],[-119.442,33.232],[-119.438,33.217]]],[[[-118.35,32.828],[-118.409,32.819],[-118.473,32.839],[-118.529,32.936],[-118.59,33.011],[-118.557,33.033],[-118.507,32.96],[-118.383,32.849],[-118.35,32.828]]]]}},{"type":"Feature","properties":{"postal":"CO","name":"Colorado"},"geometry":{"type":"MultiPolygon","coordinates":[[[[-109.047,37.001],[-109.047,37.251],[-109.047,37.501],[-109.047,37.751],[-109.047,38.001],[-109.047,38.251],[-109.047,38.501],[-109.047,38.751],[-109.047,39.001],[-109.047,39.251],[-109.046,39.501],[-109.046,39.751],[-109.046,40.001],[-109.046,40.251],[-109.046,40.501],[-109.046,40.751],[-109.046,41.001],[-108.732,41.001],[-108.418,41.001],[-108.104,41.001],[-107.79,41.001],[-107.476,41.001],[-107.162,41.001],[-106.848,41.001],[-106.534,41.001],[-106.22,41.001],[-105.906,41.001],[-105.592,41.001],[-105.278,41.001],[-104.964,41.001],[-104.65,41.001],[-104.336,41.001],[-104.022,41.001],[-103.772,41.001],[-103.522,41.001],[-103.273,41.001],[-103.023,41.001],[-102.774,41.001],[-102.524,41.001],[-102.275,41.001],[-102.025,41.001],[-102.025,40.876],[-102.025,40.751],[-102.025,40.626],[-102.025,40.501],[-102.025,40.376],[-102.025,40.251],[-102.025,40.126],[-102.024,40.001],[-102.024,39.814],[-102.023,39.626],[-102.022,39.439],[-102.022,39.251],[-102.021,39.064],[-102.02,38.876],[-102.019,38.688],[-102.019,38.501],[-102.018,38.313],[-102.017,38.126],[-102.016,37.938],[-102.016,37.751],[-102.015,37.563],[-102.014,37.376],[-102.014,37.188],[-102.013,37.001],[-102.26,37.001],[-102.507,37.001],[-102.754,37.001],[-103.001,37.001],[-103.379,37.001],[-103.757,37.001],[-104.134,37.001],[-104.512,37.001],[-104.89,37.001],[-105.268,37.001],[-105.646,37.001],[-106.024,37.001],[-106.402,37.001],[-106.779,37.001],[-107.157,37.001],[-107.535,37.001],[-107.913,37.001],[-108.291,37.001],[-108.669,37.001],[-109.047,37.001]]]]}},{"type":"Feature","properties":{"postal":"FL","name":"Florida"},"geometry":{"type":"MultiPolygon","coordinates":[[[[-87.49,30.378],[-87.48,30.412],[-87.445,30.443],[-87.429,30.478],[-87.434,30.546],[-87.408,30.641],[-87.422,30.672],[-87.566,30.796],[-87.601,30.861],[-87.607,30.929],[-87.594,31.001],[-87.27,31.001],[-86.947,31.001],[-86.624,31.001],[-86.3,31.001],[-85.977,31.001],[-85.653,31.001],[-85.33,31.001],[-85.007,31.002],[-84.966,30.923],[-84.887,30.759],[-84.884,30.721],[-84.79,30.715],[-84.631,30.706],[-84.472,30.696],[-84.312,30.687],[-84.153,30.678],[-83.993,30.668],[-83.834,30.659],[-83.675,30.65],[-83.515,30.64],[-83.356,30.631],[-83.196,30.622],[-83.037,30.612],[-82.877,30.603],[-82.718,30.594],[-82.559,30.584],[-82.399,30.575],[-82.24,30.566],[-82.239,30.533],[-82.213,30.481],[-82.206,30.422],[-82.194,30.393],[-82.163,30.376],[-82.112,30.371],[-82.062,30.405],[-82.03,30.478],[-82.022,30.56],[-82.041,30.653],[-82.038,30.732],[-82.013,30.778],[-81.983,30.789],[-81.957,30.814],[-81.936,30.82],[-81.88,30.806],[-81.673,30.74],[-81.504,30.731],[-81.457,30.641],[-81.386,30.27],[-81.337,30.141],[-81.25,29.794],[-81.105,29.457],[-80.9,29.05],[-80.564,28.556],[-80.524,28.486],[-80.568,28.426],[-80.581,28.365],[-80.585,28.272],[-80.573,28.181],[-80.533,28.07],[-80.457,27.901],[-80.5,27.934],[-80.61,28.178],[-80.623,28.32],[-80.607,28.523],[-80.633,28.518],[-80.654,28.452],[-80.665,28.375],[-80.693,28.345],[-80.732,28.463],[-80.729,28.516],[-80.688,28.579],[-80.7,28.601],[-80.766,28.633],[-80.78,28.683],[-80.771,28.732],[-80.809,28.759],[-80.838,28.758],[-80.818,28.636],[-80.787,28.561],[-80.749,28.381],[-80.686,28.272],[-80.65,28.181],[-80.226,27.207],[-80.126,27.083],[-80.089,26.994],[-80.05,26.808],[-80.041,26.569],[-80.111,26.132],[-80.126,25.834],[-80.136,25.843],[-80.143,25.874],[-80.159,25.878],[-80.219,25.742],[-80.301,25.619],[-80.328,25.427],[-80.367,25.331],[-80.485,25.23],[-80.558,25.232],[-80.737,25.156],[-80.862,25.176],[-81.012,25.133],[-81.11,25.138],[-81.167,25.229],[-81.159,25.269],[-81.136,25.31],[-81.098,25.319],[-80.965,25.224],[-80.94,25.264],[-80.98,25.312],[-81.057,25.338],[-81.113,25.367],[-81.227,25.583],[-81.345,25.732],[-81.365,25.831],[-81.568,25.892],[-81.716,25.983],[-81.811,26.146],[-81.867,26.435],[-81.931,26.467],[-81.959,26.49],[-81.896,26.597],[-81.829,26.687],[-81.882,26.665],[-81.921,26.631],[-81.97,26.552],[-82.006,26.54],[-82.04,26.552],[-82.078,26.704],[-82.067,26.892],[-82.013,26.962],[-82.096,26.963],[-82.181,26.937],[-82.169,26.874],[-82.181,26.84],[-82.243,26.849],[-82.29,26.871],[-82.354,26.936],[-82.441,27.06],[-82.62,27.401],[-82.655,27.449],[-82.715,27.5],[-82.687,27.515],[-82.636,27.525],[-82.521,27.678],[-82.431,27.771],[-82.401,27.835],[-82.406,27.863],[-82.446,27.903],[-82.498,27.868],[-82.521,27.878],[-82.58,27.958],[-82.636,27.981],[-82.675,27.964],[-82.634,27.898],[-82.597,27.873],[-82.611,27.777],[-82.626,27.746],[-82.661,27.718],[-82.715,27.733],[-82.743,27.709],[-82.775,27.734],[-82.808,27.777],[-82.844,27.846],[-82.749,28.237],[-82.661,28.486],[-82.651,28.77],[-82.644,28.812],[-82.651,28.887],[-82.769,29.052],[-83.29,29.452],[-83.694,29.926],[-84.044,30.104],[-84.31,30.065],[-84.356,30.029],[-84.375,29.982],[-84.359,29.929],[-84.383,29.907],[-84.454,29.91],[-84.55,29.898],[-84.801,29.773],[-84.889,29.778],[-84.969,29.745],[-85.029,29.721],[-85.186,29.708],[-85.319,29.68],[-85.376,29.695],[-85.414,29.768],[-85.414,29.842],[-85.383,29.785],[-85.336,29.74],[-85.315,29.758],[-85.307,29.798],[-85.354,29.876],[-85.504,29.976],[-85.676,30.122],[-85.623,30.117],[-85.61,30.148],[-85.663,30.189],[-85.641,30.237],[-85.604,30.287],[-85.676,30.279],[-85.741,30.244],[-85.743,30.201],[-85.756,30.167],[-85.791,30.172],[-85.856,30.214],[-86.175,30.333],[-86.454,30.399],[-86.24,30.429],[-86.124,30.406],[-86.138,30.442],[-86.166,30.464],[-86.257,30.493],[-86.374,30.482],[-86.448,30.496],[-86.523,30.467],[-86.606,30.425],[-86.68,30.403],[-86.968,30.372],[-87.201,30.339],[-87.164,30.374],[-87.124,30.397],[-86.986,30.431],[-86.965,30.502],[-86.998,30.57],[-87.034,30.554],[-87.072,30.5],[-87.119,30.539],[-87.171,30.539],[-87.185,30.454],[-87.251,30.397],[-87.281,30.339],[-87.476,30.294],[-87.501,30.309],[-87.444,30.364],[-87.448,30.394],[-87.49,30.378]]],[[[-84.908,29.643],[-85.008,29.607],[-85.117,29.633],[-85.049,29.638],[-85.001,29.627],[-84.877,29.679],[-84.812,29.718],[-84.737,29.732],[-84.908,29.643]]],[[[-80.187,27.278],[-80.171,27.205],[-80.262,27.376],[-80.376,27.643],[-80.437,27.851],[-80.396,27.795],[-80.356,27.679],[-80.187,27.278]]],[[[-82.084,26.552],[-82.085,26.494],[-82.136,26.592],[-82.169,26.701],[-82.121,26.666],[-82.084,26.552]]],[[[-82.037,26.454],[-82.073,26.428],[-82.145,26.447],[-82.184,26.481],[-82.201,26.548],[-82.139,26.477],[-82.116,26.461],[-82.037,26.454]]],[[[-80.382,25.142],[-80.581,24.954],[-80.559,25.001],[-80.481,25.102],[-80.456,25.149],[-80.404,25.179],[-80.355,25.234],[-80.351,25.297],[-80.28,25.341],[-80.257,25.348],[-80.382,25.142]]],[[[-81.044,24.717],[-81.09,24.693],[-81.137,24.711],[-81.085,24.734],[-80.93,24.759],[-80.989,24.728],[-81.044,24.717]]],[[[-81.335,24.65],[-81.365,24.63],[-81.379,24.636],[-81.379,24.666],[-81.422,24.733],[-81.42,24.75],[-81.322,24.685],[-81.32,24.668],[-81.335,24.65]]],[[[-81.567,24.6],[-81.632,24.59],[-81.579,24.629],[-81.562,24.689],[-81.532,24.642],[-81.532,24.614],[-81.567,24.6]]]]}},{"type":"Feature","properties":{"postal":"LA","name":"Louisiana"},"geometry":{"type":"MultiPolygon","coordinates":[[[[-94.041,33.012],[-93.862,33.012],[-93.682,33.012],[-93.502,33.013],[-93.323,33.013],[-93.143,33.013],[-92.963,33.013],[-92.784,33.013],[-92.604,33.014],[-92.424,33.014],[-92.245,33.014],[-92.065,33.014],[-91.885,33.015],[-91.706,33.015],[-91.526,33.015],[-91.346,33.015],[-91.15,33.016],[-91.144,32.967],[-91.096,32.938],[-91.093,32.885],[-91.136,32.809],[-91.136,32.756],[-91.092,32.726],[-91.094,32.694],[-91.142,32.661],[-91.15,32.625],[-91.116,32.586],[-91.101,32.541],[-91.104,32.49],[-91.059,32.424],[-90.99,32.381],[-90.945,32.331],[-90.94,32.303],[-90.938,32.277],[-90.948,32.24],[-91.005,32.186],[-91.048,32.146],[-91.075,32.131],[-91.089,32.104],[-91.093,32.046],[-91.157,31.971],[-91.286,31.884],[-91.373,31.774],[-91.415,31.64],[-91.459,31.555],[-91.506,31.519],[-91.529,31.449],[-91.529,31.345],[-91.559,31.288],[-91.618,31.277],[-91.631,31.218],[-91.596,31.11],[-91.611,31.065],[-91.653,31.03],[-91.656,31.002],[-91.417,31.001],[-91.177,31.001],[-90.937,31.001],[-90.696,31.001],[-90.456,31.001],[-90.216,31.001],[-89.976,31.001],[-89.735,31.001],[-89.765,30.886],[-89.835,30.731],[-89.838,30.69],[-89.82,30.64],[-89.82,30.611],[-89.794,30.569],[-89.737,30.527],[-89.686,30.463],[-89.641,30.349],[-89.629,30.296],[-89.592,30.223],[-89.572,30.209],[-89.545,30.201],[-89.521,30.193],[-89.588,30.166],[-89.954,30.269],[-90.045,30.351],[-90.126,30.369],[-90.225,30.379],[-90.332,30.278],[-90.413,30.14],[-90.285,30.065],[-90.175,30.029],[-89.994,30.059],[-89.894,30.126],[-89.812,30.124],[-89.773,30.137],[-89.737,30.172],[-89.668,30.145],[-89.665,30.117],[-89.715,30.078],[-89.777,30.046],[-89.815,30.007],[-89.744,29.93],[-89.632,29.904],[-89.59,29.915],[-89.563,30.002],[-89.494,30.058],[-89.401,30.046],[-89.414,30.011],[-89.401,29.978],[-89.358,29.921],[-89.363,29.84],[-89.354,29.82],[-89.455,29.784],[-89.531,29.772],[-89.591,29.725],[-89.559,29.698],[-89.621,29.674],[-89.662,29.684],[-89.683,29.675],[-89.689,29.646],[-89.721,29.619],[-89.675,29.539],[-89.58,29.486],[-89.514,29.42],[-89.246,29.333],[-89.181,29.336],[-89.117,29.248],[-89.065,29.218],[-89.016,29.203],[-89.021,29.143],[-89.11,29.099],[-89.133,29.046],[-89.156,29.017],[-89.195,29.054],[-89.236,29.081],[-89.331,28.999],[-89.376,28.981],[-89.354,29.07],[-89.389,29.105],[-89.443,29.194],[-89.522,29.249],[-89.577,29.268],[-89.62,29.302],[-89.672,29.317],[-89.717,29.313],[-89.792,29.333],[-89.797,29.381],[-89.818,29.416],[-89.877,29.458],[-90.159,29.537],[-90.161,29.504],[-90.141,29.48],[-90.101,29.463],[-90.052,29.431],[-90.053,29.337],[-90.074,29.297],[-90.083,29.24],[-90.101,29.182],[-90.136,29.136],[-90.213,29.105],[-90.247,29.131],[-90.302,29.256],[-90.379,29.295],[-90.503,29.3],[-90.586,29.272],[-90.678,29.151],[-90.751,29.131],[-91.003,29.194],[-91.29,29.289],[-91.283,29.321],[-91.237,29.331],[-91.151,29.318],[-91.155,29.351],[-91.244,29.457],[-91.26,29.505],[-91.249,29.564],[-91.278,29.563],[-91.331,29.514],[-91.514,29.555],[-91.565,29.605],[-91.672,29.746],[-91.824,29.751],[-91.893,29.836],[-92.017,29.8],[-92.08,29.761],[-92.135,29.699],[-92.114,29.668],[-92.059,29.617],[-92.084,29.593],[-92.261,29.557],[-92.671,29.597],[-92.791,29.635],[-92.952,29.714],[-93.176,29.779],[-93.283,29.789],[-93.388,29.777],[-93.695,29.77],[-93.766,29.753],[-93.826,29.725],[-93.866,29.756],[-93.884,29.81],[-93.848,29.819],[-93.809,29.851],[-93.773,29.914],[-93.769,29.952],[-93.794,29.977],[-93.727,30.077],[-93.711,30.113],[-93.721,30.283],[-93.75,30.345],[-93.747,30.38],[-93.715,30.473],[-93.72,30.558],[-93.665,30.661],[-93.625,30.714],[-93.579,30.824],[-93.569,30.895],[-93.549,30.948],[-93.563,31.005],[-93.531,31.046],[-93.551,31.104],[-93.558,31.18],[-93.597,31.21],[-93.666,31.323],[-93.664,31.372],[-93.736,31.478],[-93.738,31.514],[-93.807,31.569],[-93.821,31.604],[-93.827,31.75],[-93.846,31.793],[-93.905,31.877],[-94.043,31.999],[-94.043,32.126],[-94.043,32.252],[-94.043,32.379],[-94.042,32.506],[-94.042,32.632],[-94.042,32.759],[-94.042,32.885],[-94.041,33.012]]],[[[-89.224,30.084],[-89.22,30.038],[-89.269,30.061],[-89.342,30.063],[-89.31,30.079],[-89.288,30.094],[-89.276,30.111],[-89.185,30.169],[-89.211,30.126],[-89.224,30.084]]],[[[-88.827,29.808],[-88.856,29.776],[-88.828,29.928],[-88.867,30.057],[-88.826,30.0],[-88.813,29.933],[-88.827,29.808]]],[[[-88.889,29.713],[-88.944,29.66],[-88.941,29.68],[-88.901,29.733],[-88.873,29.753],[-88.889,29.713]]],[[[-91.794,29.501],[-91.831,29.486],[-91.996,29.573],[-92.007,29.61],[-91.925,29.644],[-91.875,29.641],[-91.797,29.597],[-91.768,29.585],[-91.754,29.567],[-91.762,29.539],[-91.794,29.501]]]]}},{"type":"Feature","properties":{"postal":"NC","name":"North Carolina"},"geometry":{"type":"MultiPolygon","coordinates":[[[[-83.115,35.001],[-83.417,34.998],[-83.72,34.995],[-84.022,34.991],[-84.325,34.988],[-84.287,35.201],[-84.261,35.25],[-84.232,35.261],[-84.129,35.261],[-84.062,35.286],[-84.004,35.414],[-83.871,35.515],[-83.812,35.54],[-83.723,35.56],[-83.511,35.584],[-83.284,35.682],[-83.12,35.775],[-82.99,35.8],[-82.949,35.835],[-82.92,35.879],[-82.902,35.939],[-82.888,35.952],[-82.813,35.947],[-82.756,36.0],[-82.7,36.03],[-82.645,36.047],[-82.611,36.047],[-82.598,36.032],[-82.589,35.987],[-82.577,35.972],[-82.553,35.971],[-82.521,35.981],[-82.478,36.01],[-82.368,36.1],[-82.295,36.134],[-82.182,36.154],[-82.101,36.107],[-82.051,36.123],[-81.908,36.306],[-81.851,36.34],[-81.808,36.353],[-81.734,36.355],[-81.733,36.406],[-81.708,36.482],[-81.704,36.534],[-81.659,36.611],[-81.642,36.595],[-81.28,36.592],[-80.918,36.589],[-80.556,36.587],[-80.194,36.584],[-79.833,36.581],[-79.471,36.578],[-79.109,36.575],[-78.747,36.573],[-78.386,36.57],[-78.024,36.567],[-77.662,36.564],[-77.3,36.561],[-76.938,36.559],[-76.577,36.556],[-76.215,36.553],[-75.966,36.551],[-75.993,36.474],[-75.978,36.429],[-75.925,36.383],[-75.867,36.268],[-75.82,36.113],[-75.883,36.176],[-75.95,36.209],[-76.055,36.235],[-76.148,36.279],[-76.141,36.215],[-76.15,36.146],[-76.222,36.167],[-76.271,36.19],[-76.227,36.116],[-76.321,36.138],[-76.384,36.134],[-76.424,36.068],[-76.479,36.028],[-76.559,36.015],[-76.679,36.075],[-76.718,36.148],[-76.734,36.229],[-76.74,36.133],[-76.719,36.034],[-76.726,35.958],[-76.611,35.944],[-76.504,35.956],[-76.358,35.953],[-76.264,35.967],[-76.207,35.991],[-76.07,35.97],[-76.06,35.879],[-76.076,35.788],[-76.084,35.691],[-76.046,35.691],[-76.001,35.722],[-75.979,35.896],[-75.854,35.96],[-75.812,35.956],[-75.772,35.9],[-75.759,35.843],[-75.745,35.765],[-75.774,35.647],[-75.966,35.508],[-76.104,35.38],[-76.174,35.354],[-76.275,35.369],[-76.39,35.401],[-76.447,35.408],[-76.489,35.397],[-76.516,35.436],[-76.532,35.508],[-76.577,35.532],[-76.611,35.53],[-76.634,35.453],[-76.741,35.431],[-76.887,35.463],[-77.04,35.527],[-76.974,35.458],[-76.595,35.33],[-76.553,35.306],[-76.513,35.27],[-76.566,35.215],[-76.608,35.153],[-76.613,35.104],[-76.628,35.073],[-76.779,34.99],[-76.861,35.005],[-77.07,35.155],[-76.975,35.025],[-76.899,34.97],[-76.745,34.941],[-76.457,34.989],[-76.362,34.937],[-76.44,34.843],[-76.517,34.777],[-76.618,34.77],[-76.707,34.752],[-76.733,34.707],[-76.797,34.704],[-76.896,34.701],[-77.049,34.697],[-77.134,34.708],[-77.252,34.616],[-77.296,34.603],[-77.358,34.62],[-77.384,34.694],[-77.412,34.731],[-77.413,34.592],[-77.402,34.555],[-77.38,34.527],[-77.518,34.451],[-77.65,34.358],[-77.697,34.332],[-77.751,34.285],[-77.861,34.149],[-77.888,34.05],[-77.928,33.94],[-77.933,33.989],[-77.926,34.073],[-77.953,34.169],[-77.971,33.993],[-78.013,33.912],[-78.406,33.918],[-78.564,33.877],[-78.708,33.998],[-78.843,34.112],[-78.978,34.226],[-79.113,34.34],[-79.248,34.454],[-79.383,34.569],[-79.519,34.683],[-79.654,34.797],[-79.795,34.801],[-79.936,34.805],[-80.078,34.809],[-80.219,34.813],[-80.36,34.817],[-80.501,34.821],[-80.643,34.825],[-80.784,34.829],[-80.789,34.907],[-80.793,34.963],[-80.882,35.058],[-80.934,35.114],[-81.045,35.066],[-81.051,35.089],[-81.047,35.131],[-81.057,35.146],[-81.087,35.156],[-81.246,35.161],[-81.405,35.167],[-81.563,35.173],[-81.722,35.179],[-81.88,35.184],[-82.039,35.19],[-82.197,35.196],[-82.356,35.202],[-82.393,35.211],[-82.464,35.178],[-82.651,35.128],[-82.744,35.084],[-82.778,35.087],[-82.937,35.044],[-83.097,35.002],[-83.115,35.001]]],[[[-75.889,36.551],[-75.857,36.551],[-75.758,36.229],[-75.559,35.879],[-75.534,35.819],[-75.58,35.872],[-75.728,36.104],[-75.81,36.271],[-75.889,36.551]]],[[[-75.636,35.856],[-75.651,35.836],[-75.717,35.946],[-75.649,35.91],[-75.637,35.881],[-75.636,35.856]]],[[[-75.544,35.24],[-75.678,35.213],[-75.69,35.222],[-75.536,35.279],[-75.488,35.48],[-75.481,35.572],[-75.504,35.735],[-75.504,35.769],[-75.478,35.716],[-75.456,35.564],[-75.465,35.449],[-75.509,35.28],[-75.544,35.24]]],[[[-75.782,35.19],[-75.964,35.119],[-75.984,35.123],[-75.865,35.174],[-75.782,35.19]]],[[[-76.504,34.643],[-76.529,34.632],[-76.437,34.756],[-76.256,34.915],[-76.207,34.939],[-76.358,34.804],[-76.504,34.643]]],[[[-76.546,34.655],[-76.568,34.653],[-76.608,34.664],[-76.662,34.685],[-76.674,34.7],[-76.622,34.695],[-76.546,34.655]]]]}},{"type":"Feature","properties":{"postal":"TX","name":"Texas"},"geometry":{"type":"MultiPolygon","coordinates":[[[[-94.484,33.648],[-94.432,33.6],[-94.39,33.586],[-94.378,33.566],[-94.358,33.561],[-94.333,33.565],[-94.295,33.587],[-94.238,33.581],[-94.192,33.589],[-94.099,33.577],[-94.047,33.554],[-94.046,33.419],[-94.044,33.283],[-94.043,33.148],[-94.041,33.012],[-94.042,32.885],[-94.042,32.759],[-94.042,32.632],[-94.042,32.506],[-94.043,32.379],[-94.043,32.252],[-94.043,32.126],[-94.043,31.999],[-93.905,31.877],[-93.846,31.793],[-93.827,31.75],[-93.821,31.604],[-93.807,31.569],[-93.738,31.514],[-93.736,31.478],[-93.664,31.372],[-93.666,31.323],[-93.597,31.21],[-93.558,31.18],[-93.551,31.104],[-93.531,31.046],[-93.563,31.005],[-93.549,30.948],[-93.569,30.895],[-93.579,30.824],[-93.625,30.714],[-93.665,30.661],[-93.72,30.558],[-93.715,30.473],[-93.747,30.38],[-93.75,30.345],[-93.721,30.283],[-93.711,30.113],[-93.727,30.077],[-93.794,29.977],[-93.841,29.98],[-93.946,29.815],[-93.886,29.723],[-93.89,29.689],[-94.1,29.67],[-94.574,29.485],[-94.76,29.384],[-94.75,29.418],[-94.526,29.548],[-94.605,29.568],[-94.733,29.535],[-94.778,29.548],[-94.724,29.655],[-94.742,29.75],[-94.832,29.753],[-94.89,29.677],[-94.93,29.68],[-94.982,29.713],[-95.023,29.702],[-94.993,29.531],[-94.936,29.46],[-94.888,29.371],[-95.018,29.259],[-95.139,29.168],[-95.152,29.079],[-95.274,28.964],[-95.388,28.898],[-95.656,28.745],[-95.732,28.712],[-95.853,28.64],[-96.02,28.587],[-96.181,28.502],[-96.235,28.489],[-96.132,28.561],[-96.011,28.632],[-96.115,28.622],[-96.275,28.655],[-96.373,28.657],[-96.374,28.631],[-96.449,28.594],[-96.526,28.648],[-96.56,28.684],[-96.576,28.716],[-96.609,28.723],[-96.64,28.709],[-96.525,28.489],[-96.475,28.479],[-96.421,28.457],[-96.489,28.406],[-96.562,28.367],[-96.676,28.341],[-96.774,28.422],[-96.795,28.321],[-96.807,28.22],[-96.84,28.194],[-96.892,28.158],[-96.92,28.185],[-96.933,28.224],[-96.967,28.19],[-97.015,28.163],[-97.096,28.158],[-97.156,28.144],[-97.155,28.103],[-97.141,28.061],[-97.034,28.094],[-97.073,27.986],[-97.171,27.88],[-97.252,27.854],[-97.374,27.87],[-97.404,27.859],[-97.432,27.837],[-97.289,27.671],[-97.38,27.419],[-97.439,27.328],[-97.48,27.317],[-97.524,27.314],[-97.682,27.395],[-97.768,27.457],[-97.692,27.287],[-97.485,27.237],[-97.475,27.173],[-97.476,27.118],[-97.517,27.053],[-97.555,26.967],[-97.526,26.908],[-97.494,26.76],[-97.466,26.692],[-97.435,26.486],[-97.402,26.397],[-97.214,26.068],[-97.15,26.065],[-97.14,26.03],[-97.146,25.961],[-97.282,25.942],[-97.339,25.911],[-97.35,25.885],[-97.358,25.871],[-97.376,25.872],[-97.44,25.891],[-97.587,25.984],[-97.801,26.042],[-98.083,26.064],[-98.275,26.111],[-98.378,26.182],[-98.486,26.225],[-98.598,26.238],[-98.691,26.276],[-98.765,26.34],[-98.873,26.381],[-99.015,26.399],[-99.108,26.447],[-99.172,26.564],[-99.172,26.566],[-99.23,26.762],[-99.302,26.885],[-99.444,27.037],[-99.457,27.057],[-99.457,27.057],[-99.458,27.082],[-99.44,27.17],[-99.455,27.234],[-99.5,27.286],[-99.51,27.34],[-99.486,27.398],[-99.484,27.467],[-99.505,27.548],[-99.595,27.636],[-99.754,27.73],[-99.89,27.867],[-100.001,28.048],[-100.112,28.173],[-100.221,28.243],[-100.296,28.328],[-100.336,28.428],[-100.348,28.486],[-100.332,28.503],[-100.399,28.614],[-100.55,28.821],[-100.636,28.973],[-100.659,29.069],[-100.755,29.183],[-100.924,29.315],[-101.016,29.401],[-101.039,29.46],[-101.039,29.46],[-101.304,29.634],[-101.38,29.743],[-101.44,29.777],[-101.509,29.773],[-101.545,29.784],[-101.546,29.808],[-101.569,29.809],[-101.612,29.787],[-101.752,29.782],[-101.991,29.796],[-102.163,29.825],[-102.269,29.871],[-102.343,29.865],[-102.386,29.807],[-102.476,29.769],[-102.615,29.752],[-102.734,29.644],[-102.834,29.444],[-102.878,29.315],[-102.866,29.258],[-102.892,29.216],[-102.957,29.19],[-103.023,29.132],[-103.09,29.042],[-103.168,28.998],[-103.258,29.001],[-103.423,29.071],[-103.664,29.207],[-103.853,29.291],[-103.99,29.323],[-104.111,29.386],[-104.216,29.48],[-104.312,29.542],[-104.401,29.574],[-104.504,29.678],[-104.622,29.854],[-104.681,29.991],[-104.681,30.134],[-104.836,30.448],[-104.918,30.583],[-104.979,30.646],[-105.098,30.721],[-105.276,30.807],[-105.514,30.981],[-105.813,31.241],[-106.024,31.398],[-106.148,31.451],[-106.256,31.545],[-106.347,31.679],[-106.436,31.764],[-106.445,31.768],[-106.566,31.82],[-106.566,31.82],[-106.668,32.001],[-106.662,32.001],[-106.437,32.001],[-106.213,32.001],[-105.988,32.002],[-105.763,32.002],[-105.538,32.002],[-105.313,32.002],[-105.089,32.002],[-104.864,32.002],[-104.639,32.002],[-104.414,32.002],[-104.19,32.002],[-103.965,32.002],[-103.74,32.002],[-103.515,32.003],[-103.29,32.003],[-103.066,32.003],[-103.064,32.284],[-103.063,32.565],[-103.061,32.846],[-103.06,33.127],[-103.058,33.408],[-103.057,33.689],[-103.055,33.971],[-103.054,34.252],[-103.052,34.533],[-103.051,34.814],[-103.049,35.095],[-103.048,35.376],[-103.047,35.657],[-103.045,35.938],[-103.044,36.219],[-103.042,36.501],[-103.0,36.501],[-102.813,36.501],[-102.626,36.501],[-102.438,36.501],[-102.251,36.501],[-102.063,36.501],[-101.876,36.501],[-101.689,36.501],[-101.501,36.501],[-101.314,36.501],[-101.127,36.501],[-100.939,36.501],[-100.752,36.501],[-100.565,36.501],[-100.377,36.501],[-100.19,36.501],[-100.002,36.501],[-100.002,36.381],[-100.002,36.262],[-100.002,36.142],[-100.002,36.022],[-100.001,35.903],[-100.001,35.783],[-100.001,35.663],[-100.001,35.544],[-100.001,35.424],[-100.001,35.305],[-100.0,35.185],[-100.0,35.065],[-100.0,34.946],[-100.0,34.826],[-100.0,34.706],[-99.999,34.587],[-99.941,34.576],[-99.867,34.543],[-99.686,34.416],[-99.632,34.388],[-99.536,34.405],[-99.432,34.389],[-99.405,34.392],[-99.385,34.447],[-99.375,34.458],[-99.36,34.456],[-99.27,34.407],[-99.253,34.388],[-99.2,34.318],[-99.187,34.235],[-99.158,34.223],[-99.102,34.213],[-98.969,34.209],[-98.799,34.155],[-98.73,34.147],[-98.608,34.161],[-98.494,34.089],[-98.454,34.078],[-98.42,34.088],[-98.356,34.142],[-98.214,34.135],[-98.099,34.145],[-98.09,34.084],[-98.069,34.04],[-97.974,33.994],[-97.951,33.971],[-97.946,33.897],[-97.922,33.878],[-97.883,33.871],[-97.842,33.876],[-97.795,33.899],[-97.692,33.972],[-97.66,33.99],[-97.641,33.992],[-97.622,33.988],[-97.606,33.972],[-97.571,33.916],[-97.482,33.886],[-97.43,33.839],[-97.398,33.831],[-97.364,33.84],[-97.308,33.869],[-97.265,33.868],[-97.215,33.897],[-97.195,33.891],[-97.186,33.87],[-97.201,33.808],[-97.192,33.785],[-97.172,33.757],[-97.145,33.738],[-97.119,33.735],[-97.099,33.75],[-97.061,33.828],[-97.064,33.857],[-97.022,33.867],[-97.002,33.882],[-96.978,33.938],[-96.934,33.953],[-96.911,33.95],[-96.89,33.935],[-96.848,33.883],[-96.746,33.854],[-96.72,33.853],[-96.694,33.864],[-96.649,33.906],[-96.625,33.911],[-96.606,33.906],[-96.595,33.899],[-96.592,33.849],[-96.487,33.792],[-96.411,33.775],[-96.337,33.718],[-96.315,33.711],[-96.279,33.758],[-96.207,33.774],[-96.139,33.822],[-95.942,33.883],[-95.863,33.863],[-95.784,33.865],[-95.763,33.891],[-95.623,33.93],[-95.594,33.945],[-95.556,33.926],[-95.542,33.898],[-95.523,33.887],[-95.427,33.873],[-95.374,33.874],[-95.276,33.911],[-95.238,33.956],[-95.216,33.959],[-95.146,33.937],[-94.962,33.843],[-94.869,33.768],[-94.766,33.732],[-94.709,33.699],[-94.484,33.648]]],[[[-95.04,29.146],[-95.09,29.136],[-94.872,29.29],[-94.826,29.341],[-94.768,29.339],[-94.865,29.253],[-95.04,29.146]]],[[[-96.764,28.153],[-96.801,28.148],[-96.756,28.202],[-96.682,28.23],[-96.519,28.333],[-96.453,28.341],[-96.419,28.376],[-96.404,28.382],[-96.413,28.338],[-96.544,28.276],[-96.764,28.153]]],[[[-97.014,27.902],[-97.036,27.899],[-96.988,27.981],[-96.979,28.014],[-96.899,28.117],[-96.857,28.133],[-96.84,28.089],[-96.921,28.016],[-97.014,27.902]]],[[[-97.354,27.3],[-97.385,27.243],[-97.376,27.328],[-97.295,27.523],[-97.13,27.779],[-97.061,27.822],[-97.251,27.541],[-97.354,27.3]]],[[[-97.171,26.159],[-97.185,26.113],[-97.267,26.33],[-97.402,26.821],[-97.407,27.1],[-97.386,27.197],[-97.351,26.801],[-97.202,26.3],[-97.171,26.159]]]]}}]}
